2022-167J               
1 54690U 22167J   22364.07874722  .00004948  00000+0  30902-3 0  9997
2 54690  97.5332 138.7263 0014312 208.2166 240.1879 15.09849088  3131
2022-167K               
1 54691U 22167K   22364.07455505  .00008784  00000+0  54625-3 0  9992
2 54691  97.5402 138.7383 0014571 206.0682 213.9017 15.09779843  3132
2022-167L               
1 54692U 22167L   22364.07864044  .00004957  00000+0  30948-3 0  9995
2 54692  97.5444 138.7545 0015009 207.3028 241.0797 15.09856138  3134
2022-167M               
1 54693U 22167M   22364.03384600  .00010554  00000+0  66901-3 0  9995
2 54693  97.5413 138.6737 0014441 190.2996 304.0849 15.09026976  3098
2022-167N               
1 54694U 22167N   22364.07716895  .00005054  00000+0  31448-3 0  9992
2 54694  97.5352 138.7339 0015082 208.9881 239.4722 15.09966115  3136
2022-167P               
1 54695U 22167P   22364.07716911  .00005060  00000+0  31477-3 0  9991
2 54695  97.5396 138.7451 0015483 208.5768 240.0501 15.09967890  3139
FALCON 9 R/B            
1 54698U 22168C   22345.32368031  .00002049 -64822-5  00000+0 0  9995
2 54698  29.0000  41.2312 0098300  59.8200  27.0300 16.15592824    07
2022-169A               
1 54699U 22169A   22364.02644804  .00008953  00000+0  35986-2 0  9995
2 54699  59.9965  98.7293 0004303 266.1241  93.9301 14.28671427  2524
2022-169B               
1 54700U 22169B   22364.10229932  .00000211  00000+0  13747-3 0  9999
2 54700  59.9961  98.5260 0006612 253.6611 106.3680 14.28670896  2531
2022-169C               
1 54701U 22169C   22364.05499280  .00000157  00000+0  77900-4 0  9990
2 54701  59.9572  96.5941 0095175  54.7545 306.2361 14.49501084  2567
2022-169D               
1 54702U 22169D   22364.23688643  .00000632  00000+0  30173-3 0  9992
2 54702  59.9983  98.0444 0006006 266.9029  93.1316 14.29150063  2565
SZ-14 MODULE            
1 54704U 22060G   22364.34265888  .00026177  00000+0  30316-3 0  9999
2 54704  41.4873 104.6710 0009006 252.4423 149.8429 15.61180508  3796
GALAXY 35 (G-35)        
1 54741U 22170A   22363.68554626  .00000136  00000+0  00000+0 0  9999
2 54741   0.0432 204.9007 0001967 167.6614 182.2856  1.00269418   214
GALAXY 36 (G-36)        
1 54742U 22170B   22364.18782366  .00000137  00000+0  00000+0 0  9991
2 54742   0.0050 119.1418 0002043 149.9508 107.1510  1.00273398   232
METEOSAT-12 (MTG-1)     
1 54743U 22170C   22353.31524981 -.00000002  00000+0  00000+0 0  9994
2 54743   5.5504 217.8990 7131836 181.4542 110.3708  2.25104636   115
ARIANE 5 DEB [SYLDA]    
1 54744U 22170D   22362.47558301  .00019359  00000+0  48906-2 0  9999
2 54744   5.9816 212.9323 7277424 190.0227 137.2739  2.28861921   327
ARIANE 5 R/B            
1 54745U 22170E   22361.54777604  .00004540  00000+0  84527-3 0  9992
2 54745   5.7426 215.2605 7276934 187.1761 149.0086  2.29704568   316
2022-171A               
1 54746U 22171A   22363.77299213 -.00000037  00000+0  00000+0 0  9994
2 54746  34.9911 240.8967 0006556  24.8830  33.1606 15.22353058  2294
2022-171B               
1 54747U 22171B   22364.01641635 -.00000038  00000+0  00000+0 0  9993
2 54747  34.9967 239.2437 0008111  28.5206 331.8037 15.23898731  2308
2022-171C               
1 54748U 22171C   22364.04877575 -.00000038  00000+0  00000+0 0  9991
2 54748  35.0033 239.1311 0008162  86.7143  55.0201 15.22245936  2307
2022-171D               
1 54749U 22171D   22364.07832510 -.00000038  00000+0  00000+0 0  9995
2 54749  34.9959 238.8005 0007550  39.2989 320.8281 15.24292208  2318
2022-171E               
1 54750U 22171E   22363.70441892 -.00000038  00000+0  00000+0 0  9995
2 54750  34.9902 241.2650 0012124  34.9901  29.4344 15.22288907  2244
2022-167Q               
1 54751U 22167Q   22364.07519484  .00006530  00000+0  40735-3 0  9990
2 54751  97.5369 138.7277 0013683 207.2354 213.9539 15.09777375  2793
SHIYAN 21               
1 54752U 22172A   22363.93162671  .00008489  00000+0  30694-3 0  9991
2 54752  36.0016  69.3519 0012746  61.1077 108.0407 15.27779197  2092
SWOT                    
1 54754U 22173A   22364.01398158  .00137851  00000+0  76186-1 0  9995
2 54754  77.5784 307.4898 0005225 356.3520   1.4753 14.10382176  1905
2022-174A               
1 54755U 22174A   22356.18260191  .00000047  00000+0  00000+0 0  9997
2 54755   9.6319 253.0871 1859317 195.2651 337.7567  7.25479946   387
2022-174B               
1 54756U 22174B   22363.39932551  .00000048  00000+0  00000+0 0  9996
2 54756   9.6181 242.6876 1870272 215.8987 129.9889  7.26305619   900
2022-174C               
1 54757U 22174C   22363.39930934  .00000051  00000+0  19909-2 0  9995
2 54757   9.6155 242.6686 1870445 215.9316 129.9431  7.26306030   888
STARLINK-5464           
1 54758U 22175A   22364.00001157  .00065958  00000+0  47110-3 0  9995
2 54758  53.2148 245.8522 0001474 335.0368 103.7510 15.73179220   370
STARLINK-5215           
1 54759U 22175B   22364.00001157  .00062287  00000+0  44529-3 0  9999
2 54759  53.2145 245.8464 0001318  23.5775  57.1140 15.73181051  1659
STARLINK-5220           
1 54760U 22175C   22364.00001157 -.00045447  00000+0 -31991-3 0  9991
2 54760  53.2147 245.8496 0001270  80.7561 359.4180 15.73289297  1656
STARLINK-5202           
1 54761U 22175D   22364.33334491  .00016486  00000+0  12168-3 0  9992
2 54761  53.2169 244.1960 0001090  76.3868  92.1084 15.73194018  1706
STARLINK-5214           
1 54762U 22175E   22364.00001157  .00065958  00000+0  47009-3 0  9997
2 54762  53.2146 245.8452 0001397  86.6494 355.1192 15.73229556  1657
STARLINK-5191           
1 54763U 22175F   22364.00001157 -.00053356  00000+0 -37728-3 0  9996
2 54763  53.2149 245.8467 0001143  72.4239   8.9884 15.73254553  1652
STARLINK-5458           
1 54764U 22175G   22364.00001157 -.00021171  00000+0 -14643-3 0  9998
2 54764  53.2146 245.8425 0001199  82.0900   1.0793 15.73259210  1655
STARLINK-5466           
1 54765U 22175H   22364.00001157 -.00020175  00000+0 -13938-3 0  9998
2 54765  53.2146 245.8435 0001081  85.9005 356.6774 15.73249046  1660
STARLINK-5471           
1 54766U 22175J   22364.00001157  .00060289  00000+0  43050-3 0  9995
2 54766  53.2146 245.8403 0001079  74.2405   9.8829 15.73222058  1659
STARLINK-5472           
1 54767U 22175K   22364.00001157 -.00043402  00000+0 -30558-3 0  9995
2 54767  53.2149 245.8396 0001461  79.5441   5.4270 15.73263080  1659
STARLINK-5444           
1 54768U 22175L   22364.00001157  .00060527  00000+0  43325-3 0  9997
2 54768  53.2152 245.8384 0001815  70.3353  15.7074 15.73162841  1654
STARLINK-5404           
1 54769U 22175M   22364.33334491  .00082423  00000+0  58915-3 0  9994
2 54769  53.2165 244.1893 0001182  73.5909  99.2159 15.73071921  1700
STARLINK-5448           
1 54770U 22175N   22364.00001157  .00059909  00000+0  42875-3 0  9991
2 54770  53.2151 245.8360 0001533  77.9783   9.2675 15.73171359  1656
STARLINK-5451           
1 54771U 22175P   22364.33334491  .00025141  00000+0  18473-3 0  9996
2 54771  53.2149 244.1869 0001670  56.0337 119.2101 15.72979137  1706
STARLINK-5452           
1 54772U 22175Q   22364.00001157 -.00041642  00000+0 -29325-3 0  9995
2 54772  53.2147 245.8333 0000998  64.3163  23.6423 15.73240501  1656
STARLINK-5453           
1 54773U 22175R   22364.00001157  .00062861  00000+0  44950-3 0  9991
2 54773  53.2147 245.8361 0001857  40.9865  45.5669 15.73171094  1657
STARLINK-5454           
1 54774U 22175S   22364.33334491 -.00081450  00000+0 -57898-3 0  9990
2 54774  53.2147 244.1792 0002036  50.0348 128.6064 15.73300095  1709
STARLINK-5465           
1 54775U 22175T   22363.91667824 -.00063506  00000+0 -44975-3 0  9997
2 54775  53.2151 246.2450 0001190  70.9532 265.3092 15.73289916  1646
STARLINK-5470           
1 54776U 22175U   22363.91667824  .00037348  00000+0  26979-3 0  9995
2 54776  53.2151 246.2420 0001134  38.8709 299.0339 15.73160926  1648
STARLINK-5468           
1 54777U 22175V   22364.25001157 -.00087381  00000+0 -62273-3 0  9996
2 54777  53.2146 244.5935 0001101  55.4769  10.4010 15.73272306  1692
STARLINK-5450           
1 54778U 22175W   22363.91667824  .00028577  00000+0  20790-3 0  9996
2 54778  53.2159 246.2390 0000963  29.0906 310.1030 15.73136235  1643
STARLINK-5447           
1 54779U 22175X   22363.91667824 -.00011583  00000+0 -78400-4 0  9990
2 54779  53.2147 246.2378 0001673  38.1137 300.8871 15.73146468  1641
STARLINK-5449           
1 54780U 22175Y   22364.25001157 -.00035533  00000+0 -24937-3 0  9997
2 54780  53.2147 244.5721 0001039  76.9504 359.6318 15.73242994  1694
STARLINK-5443           
1 54781U 22175Z   22364.25001157  .00054184  00000+0  38738-3 0  9993
2 54781  53.2151 244.5894 0001771  36.2653  32.4711 15.73236361  1692
STARLINK-5437           
1 54782U 22175AA  22364.00001157 -.00904179  00000+0 -53621-2 0  9994
2 54782  53.2173 245.5652 0001435  48.3478 174.0328 15.79702492  1658
STARLINK-5439           
1 54783U 22175AB  22364.25001157 -.00005547  00000+0 -35006-4 0  9992
2 54783  53.2147 244.5868 0001039  57.9773  11.3186 15.73283900  1693
STARLINK-5442           
1 54784U 22175AC  22364.00001157 -.00110866  00000+0 -79355-3 0  9991
2 54784  53.2155 245.8235 0000872  74.5375  19.5452 15.73271516  1654
STARLINK-5440           
1 54785U 22175AD  22363.58334491 -.00902615  00000+0 -50120-2 0  9993
2 54785  53.2171 247.6475 0001089 119.0602 248.9998 15.81121466  1300
STARLINK-5438           
1 54786U 22175AE  22364.25001157  .00059770  00000+0  42754-3 0  9997
2 54786  53.2147 244.5789 0002003  58.1430  15.4636 15.73183591  1693
STARLINK-5441           
1 54787U 22175AF  22363.91667824 -.00022574  00000+0 -15640-3 0  9997
2 54787  53.2151 246.2333 0001224  75.5474 266.6817 15.73267190  1642
STARLINK-5399           
1 54788U 22175AG  22364.25001157  .00062022  00000+0  44344-3 0  9990
2 54788  53.2150 244.5772 0001594  78.9632 355.7547 15.73180194  1696
